{"type": "FeatureCollection", "generator": "JOSM", "features": [{"type": "Feature", "properties": {"native_name": "\u1019\u1014\u1039\u1010\u101c\u1031\u1038", "name": "Mandalay", "script": "Myanmar", "native_name_encoded": "\ue000\ue001\ue002"}, "geometry": {"type": "Point", "coordinates": [96.082375, 21.9812746]}}, {"type": "Feature", "properties": {"native_name": "\u182a\u1824\u182d\u1824\u1832\u1824", "name": "Baotou", "script": "Mongolian", "native_name_encoded": "\u182a\u1824\u182d\u1824\u1832\u1824"}, "geometry": {"type": "Point", "coordinates": [109.8343815, 40.6550192]}}, {"type": "Feature", "properties": {"name": "Cox's Bazar", "native_name": "\ud803\udd11\ud803\udd1d\ud803\udd27\ud803\udd1a\ud803\udd22\ud803\udd17 \ud803\udd1b\ud803\udd1f\ud803\udd23\ud803\udd1e\ud803\udd25\ud803\udd1d", "script": "Hanifi Rohingya", "native_name_encoded": "\ud803\udd11\ud803\udd1d\ud803\udd27\ud803\udd1a\ud803\udd22\ud803\udd17 \ud803\udd1b\ud803\udd1f\ud803\udd23\ud803\udd1e\ud803\udd25\ud803\udd1d"}, "geometry": {"type": "Point", "coordinates": [92.0169091, 21.4520238]}}, {"type": "Feature", "properties": {"native_name": "\u0f63\u0fb7\u0f0b\u0f66\u0f0d", "name": "Lhasa", "script": "Tibetan", "native_name_encoded": "\ue003\ue004"}, "geometry": {"type": "Point", "coordinates": [91.1704736, 29.6553895]}}, {"type": "Feature", "properties": {"native_name": "\u0995\u09b2\u0995\u09be\u09a4\u09be", "name": "Kolkata", "script": "Bangla", "native_name_encoded": "\ue005\ue006\ue005\u09be\ue008"}, "geometry": {"type": "Point", "coordinates": [88.3638953, 22.5726459]}}, {"type": "Feature", "properties": {"name": "Biratnagar", "native_name": "\u092c\u093f\u0930\u093e\u091f\u0928\u0917\u0930", "script": "Devanagari", "native_name_encoded": "\ue009\ue00a\ue00b\ue00c\ue00d"}, "geometry": {"type": "Point", "coordinates": [87.281617, 26.4623007]}}, {"type": "Feature", "properties": {"native_name": "\u0729\u0721\u072b\u0720\u071d", "name": "Qamishli", "script": "Syriac", "native_name_encoded": "\u0729\u0721\u072b\u0720\u071d"}, "geometry": {"type": "Point", "coordinates": [41.2328836, 37.0402529]}}, {"type": "Feature", "properties": {"name": "Imphal", "native_name": "\uabcf\uabdd\uabc0\uabe5\uabdf", "script": "Meetei Mayek", "native_name_encoded": "\uabcf\uabdd\uabc0\uabe5\uabdf"}, "geometry": {"type": "Point", "coordinates": [93.9364419, 24.7991162]}}, {"type": "Feature", "properties": {"name": "Medan", "native_name": "\u1bd4\u1be9\u1bd1\u1bc9\u1bf2", "script": "Batak", "native_name_encoded": "\u1bd4\u1be9\u1bd1\u1bc9\u1bf2"}, "geometry": {"type": "Point", "coordinates": [98.6738261, 3.5896654]}}, {"type": "Feature", "properties": {"name": "Bengkulu", "script": "Rejang", "native_name": "\ua937\ua949\ua93c\ua93b\ua934", "native_name_encoded": "\ua937\ua949\ua93c\ua93b\ua934"}, "geometry": {"type": "Point", "coordinates": [102.2623797, -3.7922858]}}, {"type": "Feature", "properties": {"name": "Taplejung", "native_name": "\u1910\u1920\u1915\u1922\u1918\u1921\u1915", "script": "Limbu", "native_name_encoded": "\u1910\u1920\u1915\u1922\u1918\u1921\u1915"}, "geometry": {"type": "Point", "coordinates": [87.6727257, 27.3586978]}}, {"type": "Feature", "properties": {"native_name": "\u0dc1\u0dca\u200d\u0dbb\u0dd3 \u0da2\u0dba\u0dc0\u0dbb\u0dca\u0db0\u0db1\u0db4\u0dd4\u0dbb \u0d9a\u0ddd\u0da7\u0dca\u0da7\u0dda", "name": "Sri Jayawardenepura Kotte", "script": "Sinhala", "native_name_encoded": "\ue00e \ue00f\ue010\ue011\ue012\ue013\ue014\ue015\ue016 \ue017\ue018\ue019"}, "geometry": {"type": "Point", "coordinates": [79.9187415, 6.8883219]}}, {"type": "Feature", "properties": {"native_name": "\u0a05\u0a70\u0a2e\u0a4d\u0a30\u0a3f\u0a24\u0a38\u0a30", "name": "Amritsar", "script": "Gurmukhi", "native_name_encoded": "\ue01a\ue01b\ue01c\ue01d\ue01e"}, "geometry": {"type": "Point", "coordinates": [74.8736788, 31.6343083]}}, {"type": "Feature", "properties": {"native_name": "\u0d24\u0d3f\u0d30\u0d41\u0d35\u0d28\u0d28\u0d4d\u0d24\u0d2a\u0d41\u0d30\u0d02", "name": "Thiruvananthapuram", "script": "Malayalam", "native_name_encoded": "\ue01f\ue020\ue021\ue022\ue022\u0d4d\u0d24\ue024\ue025"}, "geometry": {"type": "Point", "coordinates": [76.947551, 8.4882267]}}, {"type": "Feature", "properties": {"native_name": "\u0627\u0644\u0631\u064a\u0627\u0636", "name": "Riyadh", "script": "Arabic", "native_name_encoded": "\u0627\u0644\u0631\u064a\u0627\u0636"}, "geometry": {"type": "Point", "coordinates": [46.7160104, 24.638916]}}, {"type": "Feature", "properties": {"name": "Guiyang", "script": "Miao", "native_name": "\u1950\u1971\u1963\u1950\u195f\u1970", "native_name_encoded": "\u1950\u1971\u1963\u1950\u195f\u1970"}, "geometry": {"type": "Point", "coordinates": [106.6246178, 26.6499922]}}, {"type": "Feature", "properties": {"native_name": "\u179a\u17b6\u1787\u1792\u17b6\u1793\u17b8\u1797\u17d2\u1793\u17c6\u1796\u17c1\u1789", "name": "Phnom Penh", "script": "Khmer", "native_name_encoded": "\ue026\ue027\ue028\ue029\ue02a\ue02b\ue02c"}, "geometry": {"type": "Point", "coordinates": [104.9224426, 11.568271]}}, {"type": "Feature", "properties": {"native_name": "\u0e1e\u0e23\u0e30\u0e19\u0e04\u0e23\u0e28\u0e23\u0e35\u0e2d\u0e22\u0e38\u0e18\u0e22\u0e32", "name": "Phra Nakhon Si Ayutthaya", "script": "Thai", "native_name_encoded": "\ue02d\ue032\ue02f\ue030\ue031\ue032\ue033\ue032\u0e35\ue035\ue036\ue037\ue038\ue039"}, "geometry": {"type": "Point", "coordinates": [100.5645684, 14.3535427]}}, {"type": "Feature", "properties": {"native_name": "\u0b2d\u0b41\u0b2c\u0b28\u0b47\u0b36\u0b4d\u0b71\u0b30", "name": "Bhubaneshwar", "script": "Odia", "native_name_encoded": "\ue03a\ue03b\ue03c\ue03d\ue03e"}, "geometry": {"type": "Point", "coordinates": [85.8394521, 20.2602964]}}, {"type": "Feature", "properties": {"native_name": "\u0cac\u0cc6\u0c82\u0c97\u0cb3\u0cc2\u0cb0\u0cc1", "name": "Bengaluru", "script": "Kannada", "native_name_encoded": "\ue03f\ue040\ue041\ue042"}, "geometry": {"type": "Point", "coordinates": [77.590082, 12.9767936]}}, {"type": "Feature", "properties": {"native_name": "\u07d3\u07e1\u07ca\u07ec\u07de\u07d0\u07eb", "name": "Bamako", "script": "NKo", "native_name_encoded": "\u07d3\u07e1\u07ca\u07ec\u07de\u07d0\u07eb"}, "geometry": {"type": "Point", "coordinates": [-8.000337, 12.649319]}}, {"type": "Feature", "properties": {"native_name": "\u0789\u07a7\u078d\u07ac", "name": "Mal\u00e9", "script": "Thaana", "native_name_encoded": "\u0789\u07a7\u078d\u07ac"}, "geometry": {"type": "Point", "coordinates": [73.5107387, 4.1779879]}}, {"type": "Feature", "properties": {"native_name": "\u0c35\u0c3f\u0c36\u0c3e\u0c16\u0c2a\u0c1f\u0c4d\u0c28\u0c02", "name": "Visakhapatnam", "script": "Telugu", "native_name_encoded": "\ue043\ue044\ue045\ue046\ue047"}, "geometry": {"type": "Point", "coordinates": [83.3012842, 17.7231276]}}, {"type": "Feature", "properties": {"native_name": "\u0b9a\u0bc6\u0ba9\u0bcd\u0ba9\u0bc8", "name": "Chennai", "script": "Tamil", "native_name_encoded": "\ue048\ue049\ue04a"}, "geometry": {"type": "Point", "coordinates": [80.270186, 13.0836939]}}, {"type": "Feature", "properties": {"native_name": "\u0ea7\u0ebd\u0e87\u0e88\u0eb1\u0e99", "name": "Vientiane", "script": "Lao", "native_name_encoded": "\ue04b\ue04c\ue04d\ue04e\ue04f"}, "geometry": {"type": "Point", "coordinates": [102.6133707, 17.9640988]}}, {"type": "Feature", "properties": {"native_name": "\u0a85\u0aae\u0aa6\u0abe\u0ab5\u0abe\u0aa6", "name": "Ahmedabad", "script": "Gujarati", "native_name_encoded": "\ue050\ue051\ue052\ue053\ue054"}, "geometry": {"type": "Point", "coordinates": [72.5797068, 23.0216238]}}]}